[Satellite]
VERSION=1.1
NAME=NAYIF-1 (EO-88)
NICKNAME=NAYIF-1 (EO-88)
TLE1=1 42017U 17008BX  19317.52979939  .00001498  00000-0  61274-4 0  9990
TLE2=2 42017  97.3879  22.9994 0006640  23.0532 337.1003 15.25886977152468
STATUS=0
